<!DOCTYPE html PUBLIC "-//W3C//DTD XHTML 1.0 Transitional//EN" "http://www.w3.org/TR/xhtml1/DTD/xhtml1-transitional.dtd">
<html xmlns="http://www.w3.org/1999/xhtml" xml:lang="en" lang="en" dir="ltr">
  <head>
    <meta http-equiv="Content-Type" content="text/html; charset=UTF-8" />
	<!-- headlinks removed -->
	<link rel="shortcut icon" href="../../../../misc/favicon.ico"/>
    <title>1127 Mimi - Wikipedia, the free encyclopedia</title>
    <style type="text/css">/*<![CDATA[*/ @import "../../../../skins/offline/main.css"; /*]]>*/</style>
    <link rel="stylesheet" type="text/css" media="print" href="../../../../skins/common/commonPrint.css" />
    <!--[if lt IE 5.5000]><style type="text/css">@import "../../../../skins/monobook/IE50Fixes.css";</style><![endif]-->
    <!--[if IE 5.5000]><style type="text/css">@import "../../../../skins/monobook/IE55Fixes.css";</style><![endif]-->
    <!--[if IE 6]><style type="text/css">@import "../../../../skins/monobook/IE60Fixes.css";</style><![endif]-->
    <!--[if IE]><script type="text/javascript" src="../../../../skins/common/IEFixes.js"></script>
    <meta http-equiv="imagetoolbar" content="no" /><![endif]-->
    <script type="text/javascript" src="../../../../skins/common/wikibits.js"></script>
    <script type="text/javascript" src="../../../../skins/offline/md5.js"></script>
    <script type="text/javascript" src="../../../../skins/offline/utf8.js"></script>
    <script type="text/javascript" src="../../../../skins/offline/lookup.js"></script>
    <script type="text/javascript" src="../../../../raw/gen.js"></script>        <style type="text/css">/*<![CDATA[*/
@import "../../../../raw/MediaWiki%7ECommon.css";
@import "../../../../raw/MediaWiki%7EMonobook.css";
@import "../../../../raw/gen.css";
/*]]>*/</style>          </head>
  <body
    class="ns-0">
    <div id="globalWrapper">
      <div id="column-content">
	<div id="content">
	  <a name="top" id="contentTop"></a>
	        <h1 class="firstHeading">1127 Mimi</h1>
	  <div id="bodyContent">
	    <h3 id="siteSub">From Wikipedia, the free encyclopedia</h3>
	    <div id="contentSub"></div>
	    	    	    <!-- start content -->
	    <table class="infobox vcard" style="width:20em; text-align:left; font-size:90%;" cellspacing="2">
<caption><span class="fn org" style="font-size:120%;"><b>1127 Mimi <sup id="cite_ref-a_0-0" class="reference"><a href="#cite_note-a-0" title="">[1]</a></sup></b></span></caption>
<tr>
<th colspan="2" style="padding-top:0.75em; text-align:center;">
<div style="background:#FFFFC0">Discovery&#160;and designation</div>
</th>
</tr>
<tr>
<th style="line-height:1.1em;">Discovered by</th>
<td style="line-height:1.2em;">Arend, S.</td>
</tr>
<tr>
<th style="line-height:1.1em;">Discovery date</th>
<td style="line-height:1.2em;">1929-Jan-13</td>
</tr>
<tr>
<th colspan="2" style="text-align:center; padding-top:0.75em;">
<div style="background:#FFFFC0"><a href="../../../../articles/o/r/b/Orbit.html" title="Orbit">Orbital characteristics</a></div>
</th>
</tr>
<tr>
<td colspan="2" style="text-align:center;"><small><a href="../../../../articles/e/p/o/Epoch_%28astronomy%29.html" title="Epoch (astronomy)">Epoch</a> Orbital Elements at Epoch 2454400.5 (2007-Oct-27.0) TDB</small></td>
</tr>
<tr>
<th style="line-height:1.1em;"><a href="../../../../articles/a/p/s/Apsis.html" title="Apsis">Aphelion</a></th>
<td style="line-height:1.2em;">3.2808805 <a href="../../../../articles/a/s/t/Astronomical_units.html" class="mw-redirect" title="Astronomical units">AU</a></td>
</tr>
<tr>
<th style="line-height:1.1em;"><a href="../../../../articles/a/p/s/Apsis.html" title="Apsis">Perihelion</a></th>
<td style="line-height:1.2em;">1.9087085 AU</td>
</tr>
<tr>
<th style="line-height:1.1em;"><a href="../../../../articles/s/e/m/Semi-major_axis.html" title="Semi-major axis">Semi-major axis</a></th>
<td style="line-height:1.2em;">2.5947945 AU</td>
</tr>
<tr>
<th style="line-height:1.1em;"><a href="../../../../articles/o/r/b/Orbital_eccentricity.html" title="Orbital eccentricity">Eccentricity</a></th>
<td style="line-height:1.2em;">0.2644086</td>
</tr>
<tr>
<th style="line-height:1.1em;"><a href="../../../../articles/o/r/b/Orbital_period.html" title="Orbital period">Orbital period</a></th>
<td style="line-height:1.2em;">1526.6970977 days<br />
4.18 years</td>
</tr>
<tr>
<th style="line-height:1.1em;"><a href="../../../../articles/m/e/a/Mean_anomaly.html" title="Mean anomaly">Mean anomaly</a></th>
<td style="line-height:1.2em;">353.11915 °</td>
</tr>
<tr>
<th style="line-height:1.1em;"><a href="../../../../articles/i/n/c/Inclination.html" title="Inclination">Inclination</a></th>
<td style="line-height:1.2em;">14.7523 °</td>
</tr>
<tr>
<th style="line-height:1.1em;"><a href="../../../../articles/l/o/n/Longitude_of_the_ascending_node.html" title="Longitude of the ascending node">Longitude&#160;of ascending&#160;node</a></th>
<td style="line-height:1.2em; vertical-align:middle;">128.71629 °</td>
</tr>
<tr>
<th style="line-height:1.1em;"><a href="../../../../articles/a/r/g/Argument_of_periapsis.html" title="Argument of periapsis">Argument of perihelion</a></th>
<td style="line-height:1.2em; vertical-align:middle;">281.89636 °</td>
</tr>
<tr>
<th colspan="2" style="text-align:center; padding-top:0.75em;">
<div style="background:#FFFFC0"><a href="../../../../articles/s/t/a/Standard_asteroid_physical_characteristics.html" title="Standard asteroid physical characteristics">Physical characteristics</a></div>
</th>
</tr>
<tr>
<th style="line-height:1.1em;">Dimensions</th>
<td style="line-height:1.2em;">diameter 46.84</td>
</tr>
<tr>
<th style="line-height:1.1em;"><a href="../../../../articles/r/o/t/Rotation_period.html" title="Rotation period">Rotation period</a></th>
<td style="line-height:1.2em;">12.749 h</td>
</tr>
<tr>
<th style="line-height:1.1em;"><a href="../../../../articles/g/e/o/Geometric_albedo.html" title="Geometric albedo">Geometric albedo</a></th>
<td style="line-height:1.2em;">0.0336 &#160;</td>
</tr>
<tr>
<th style="line-height:1.1em;"><a href="../../../../articles/a/b/s/Absolute_magnitude.html" title="Absolute magnitude">Absolute magnitude</a></th>
<td style="line-height:1.2em; vertical-align:middle;">10.95 mag</td>
</tr>
</table>
<p><b>1127 Mimi</b> is a <a href="../../../../articles/m/a/i/Main_belt_asteroid.html" class="mw-redirect" title="Main belt asteroid">main belt asteroid</a> orbiting the <a href="../../../../articles/s/u/n/Sun.html" title="Sun">Sun</a>. Approximately 46 kilometers in diameter, it makes a revolution around the Sun once every 4 years. It completes one rotation once every 13 hours. It was discovered by <a href="../../../../articles/s/y/l/Sylvain_Julien_Victor_Arend_660f.html" title="Sylvain Julien Victor Arend">Sylvain Julien Victor Arend</a> on <a href="../../../../articles/j/a/n/January_13.html" title="January 13">January 13</a>, <a href="../../../../articles/1/9/2/1929.html" title="1929">1929</a>.<sup id="cite_ref-a_0-1" class="reference"><a href="#cite_note-a-0" title="">[1]</a></sup> It was named for the wife of astronomer <a href="../../../../articles/e/u/g/Eug%C3%A8ne_Joseph_Delporte_1097.html" title="Eugène Joseph Delporte">Eugène Joseph Delporte</a>. Through an error, the names intended for 1127 Mimi and <a href="../../../../articles/1/1/4/1145_Robelmonte_3995.html" title="1145 Robelmonte">1145 Robelmonte</a> had been switched, and each name had been proposed by the discoverer of the other asteroid. Its provisional designation was 1929 AJ.<sup id="cite_ref-1" class="reference"><a href="#cite_note-1" title="">[2]</a></sup></p>
<p><a name="References" id="References"></a></p>
<h2><span class="editsection">[<a href="../../../../articles/1/1/2/1127_Mimi_6c39.html" title="Edit section: References">edit</a>]</span> <span class="mw-headline">References</span></h2>
<ol class="references">
<li id="cite_note-a-0">^ <a href="#cite_ref-a_0-0" title=""><sup><i><b>a</b></i></sup></a> <a href="#cite_ref-a_0-1" title=""><sup><i><b>b</b></i></sup></a> <a href="http://ssd.jpl.nasa.gov/sbdb.cgi?sstr=1127" class="external text" title="http://ssd.jpl.nasa.gov/sbdb.cgi?sstr=1127" rel="nofollow">"JPL Small-Body Database Browser"</a>. Retrieved on <a href="../../../../articles/o/c/t/October_17.html" title="October 17">October 17</a>, <a href="../../../../articles/2/0/0/2007.html" title="2007">2007</a>.</li>
<li id="cite_note-1"><b><a href="#cite_ref-1" title="">^</a></b> <cite class="book" style="font-style:normal" id="Reference-Schmadel-2003">Schmadel, Lutz D. (2003). <i>Dictionary of Minor Planet Names</i>. Springer. <a href="../../../../articles/b/o/o/Special%7EBookSources_3540002383_f402.html" class="internal">ISBN 3540002383</a>.</cite><span class="Z3988" title="ctx_ver=Z39.88-2004&amp;rft_val_fmt=info%3Aofi%2Ffmt%3Akev%3Amtx%3Abook&amp;rft.genre=book&amp;rft.btitle=Dictionary+of+Minor+Planet+Names&amp;rft.aulast=Schmadel&amp;rft.aufirst=Lutz+D.&amp;rft.date=2003&amp;rft.pub=Springer&amp;rft.isbn=3540002383"><span style="display: none;">&#160;</span></span></li>
</ol>
<table class="navbox" cellspacing="0" style=";">
<tr>
<td style="padding:2px;">
<table cellspacing="0" class="nowraplinks collapsible show" style="width:100%;background:transparent;color:inherit;;">
<tr>
<th style=";" colspan="2" class="navbox-title">
<div style="float:left; width:6em;text-align:left;">
<div class="noprint plainlinksneverexpand" style="background-color:transparent; padding:0; white-space:nowrap; font-weight:normal; font-size:xx-small;&#160;;;border:none;;"><a href="../../../../articles/m/i/n/Template%7EMinorPlanets_Navigator_945b.html" title="Template:MinorPlanets Navigator"><span title="View this template" style=";;border:none;;">v</span></a>&#160;<span style="font-size:80%;">•</span>&#160;<a href="../../../../articles/m/i/n/Template_talk%7EMinorPlanets_Navigator_364b.html" title="Template talk:MinorPlanets Navigator"><span style="color:#002bb8;;;border:none;;" title="Discussion about this template">d</span></a>&#160;<span style="font-size:80%;">•</span>&#160;<a href="http://en.wikipedia.org../../../../articles/m/i/n/Template%7EMinorPlanets_Navigator_945b.html" class="external text" title="http://en.wikipedia.org../../../../articles/m/i/n/Template%7EMinorPlanets_Navigator_945b.html" rel="nofollow"><span style="color:#002bb8;;;border:none;;" title="You can edit this template. Please use the preview button before saving.">e</span></a></div>
</div>
<span style="font-size:110%;"><a href="../../../../articles/m/i/n/Minor_planet.html" title="Minor planet">Minor planets</a> <a href="../../../../articles/l/i/s/List_of_minor_planets.html" class="mw-redirect" title="List of minor planets">navigator</a></span></th>
</tr>
<tr style="height:2px;">
<td></td>
</tr>
<tr>
<td colspan="2" style="width:100%;padding:0px;;;" class="navbox-list navbox-odd">
<div style="padding:0em 0.25em">
<div>
<p><a href="../../../../articles/1/1/2/1126_Otero_70f3.html" title="1126 Otero">1126 Otero</a> <span style="white-space:nowrap;">&#160;&#160;&#160;&#160;&#160;</span><span style="font-weight:bold;">&#160;·</span> <span style="white-space:nowrap;">&#160;&#160;&#160;&#160;&#160;</span> <b>1127 Mimi</b> <span style="white-space:nowrap;">&#160;&#160;&#160;&#160;&#160;</span><span style="font-weight:bold;">&#160;·</span> <span style="white-space:nowrap;">&#160;&#160;&#160;&#160;&#160;</span> <a href="../../../../articles/1/1/2/1128_Astrid_f49c.html" title="1128 Astrid">1128 Astrid</a></p>
</div>
</div>
</td>
</tr>
</table>
</td>
</tr>
</table>
<table class="navbox" cellspacing="0" style=";">
<tr>
<td style="padding:2px;">
<table cellspacing="0" class="nowraplinks collapsible autocollapse" style="width:100%;background:transparent;color:inherit;;">
<tr>
<th style=";" colspan="2" class="navbox-title">
<div style="float:left; width:6em;text-align:left;">
<div class="noprint plainlinksneverexpand" style="background-color:transparent; padding:0; white-space:nowrap; font-weight:normal; font-size:xx-small;&#160;;;border:none;;"><a href="../../../../articles/s/m/a/Template%7ESmall_Solar_System_bodies_4433.html" title="Template:Small Solar System bodies"><span title="View this template" style=";;border:none;;">v</span></a>&#160;<span style="font-size:80%;">•</span>&#160;<a href="../../../../articles/s/m/a/Template_talk%7ESmall_Solar_System_bodies_477a.html" title="Template talk:Small Solar System bodies"><span style="color:#002bb8;;;border:none;;" title="Discussion about this template">d</span></a>&#160;<span style="font-size:80%;">•</span>&#160;<a href="http://en.wikipedia.org../../../../articles/s/m/a/Template%7ESmall_Solar_System_bodies_4433.html" class="external text" title="http://en.wikipedia.org../../../../articles/s/m/a/Template%7ESmall_Solar_System_bodies_4433.html" rel="nofollow"><span style="color:#002bb8;;;border:none;;" title="You can edit this template. Please use the preview button before saving.">e</span></a></div>
</div>
<span style="font-size:110%;"><a href="../../../../articles/s/m/a/Small_Solar_System_body_1256.html" title="Small Solar System body">Small Solar System bodies</a></span></th>
</tr>
<tr style="height:2px;">
<td></td>
</tr>
<tr>
<td colspan="2" style="width:100%;padding:0px;line-height:1.5em;;;" class="navbox-list navbox-odd">
<div style="padding:0em 0.25em"><span style="white-space:nowrap"><a href="../../../../articles/a/s/t/Asteroid.html" title="Asteroid">Asteroids</a> (<a href="../../../../articles/v/u/l/Vulcanoid_asteroid.html" title="Vulcanoid asteroid">Vulcanoids</a>&#160;<b>·</b></span> <span style="white-space:nowrap"><a href="../../../../articles/n/e/a/Near-Earth_asteroid_7398.html" title="Near-Earth asteroid">Near-Earth</a>&#160;<b>·</b></span> <span style="white-space:nowrap"><a href="../../../../articles/a/s/t/Asteroid_belt.html" title="Asteroid belt">Main belt</a>&#160;<b>·</b></span> <span style="white-space:nowrap"><a href="../../../../articles/t/r/o/Trojan_asteroid.html" title="Trojan asteroid">Jupiter Trojans</a>&#160;<b>·</b></span> <span style="white-space:nowrap"><a href="../../../../articles/c/e/n/Centaur_%28planetoid%29.html" title="Centaur (planetoid)">Centaurs</a>&#160;<b>·</b></span> <span style="white-space:nowrap"><a href="../../../../articles/d/a/m/Damocloid_asteroid.html" title="Damocloid asteroid">Damocloids</a>&#160;<b>·</b></span> <span style="white-space:nowrap"><a href="../../../../articles/n/e/p/Neptune_Trojan_fbc0.html" title="Neptune Trojan">Neptune Trojans</a>&#160;<b>·</b></span> <span style="white-space:nowrap"><a href="../../../../articles/a/s/t/Asteroid_group.html" title="Asteroid group">Groups</a>&#160;<b>·</b></span> <span style="white-space:nowrap"><a href="../../../../articles/a/s/t/Asteroid_family.html" title="Asteroid family">Families</a>&#160;<b>·</b></span> <span style="white-space:nowrap"><a href="../../../../articles/a/s/t/Asteroid_moon.html" title="Asteroid moon">Moons</a>)<br />
<a href="../../../../articles/c/o/m/Comet.html" title="Comet">Comets</a><span style="font-weight:bold;">&#160;·</span> <a href="../../../../articles/t/r/a/Trans-Neptunian_object_824e.html" title="Trans-Neptunian object">Trans-Neptunians</a> (<a href="../../../../articles/k/u/i/Kuiper_belt.html" title="Kuiper belt">Kuiper belt</a><span style="font-weight:bold;">&#160;·</span> <a href="../../../../articles/s/c/a/Scattered_disc_object.html" class="mw-redirect" title="Scattered disc object">Scattered disc objects</a><span style="font-weight:bold;">&#160;·</span> <a href="../../../../articles/o/o/r/Oort_cloud.html" title="Oort cloud">Oort cloud</a>)<span style="font-weight:bold;">&#160;·</span> <a href="../../../../articles/m/i/n/Minor_planet.html" title="Minor planet">Minor planets</a><span style="font-weight:bold;">&#160;·</span> <a href="../../../../articles/m/e/t/Meteoroid.html" title="Meteoroid">Meteoroids</a></span></div>
</td>
</tr>
<tr style="height:2px;">
<td></td>
</tr>
<tr>
<td class="navbox-abovebelow" style=";background:lavender; line-height:1.2em;" colspan="2"><b>Lists:</b> <a href="../../../../articles/l/i/s/List_of_minor_planets.html" class="mw-redirect" title="List of minor planets">Minor planets</a><span style="font-weight:bold;">&#160;·</span> <a href="../../../../articles/a/s/t/Category%7EAsteroid_groups_and_families_ae63.html" title="Category:Asteroid groups and families">Asteroid groups and families</a><span style="font-weight:bold;">&#160;·</span> <a href="../../../../articles/b/i/n/Category%7EBinary_asteroids_73a0.html" title="Category:Binary asteroids">Binary asteroids</a><span style="font-weight:bold;">&#160;·</span> <a href="../../../../articles/l/i/s/List_of_asteroid_moons.html" title="List of asteroid moons">Asteroid moons</a><br />
<b>See also:</b> <a href="../../../../articles/n/e/a/Near-Earth_object_e8f8.html" title="Near-Earth object">Near-Earth object</a><span style="font-weight:bold;">&#160;·</span> <a href="../../../../articles/d/w/a/Dwarf_planet.html" title="Dwarf planet">Dwarf planet</a><span style="font-weight:bold;">&#160;·</span> <a href="../../../../articles/p/l/a/Planet.html" title="Planet">Planet</a><span style="font-weight:bold;">&#160;·</span> <a href="../../../../articles/s/o/l/Solar_System_ac3e.html" title="Solar System">Solar System</a><span style="font-weight:bold;">&#160;·</span> <a href="../../../../articles/p/r/o/Pronunciation_of_asteroid_names.html" title="Pronunciation of asteroid names">Pronunciation of asteroid names</a><span style="font-weight:bold;">&#160;·</span> <a href="../../../../articles/m/e/a/Meanings_of_asteroid_names.html" title="Meanings of asteroid names">Meanings of asteroid names</a>.</td>
</tr>
</table>
</td>
</tr>
</table>


<!-- 
NewPP limit report
Preprocessor node count: 2659/1000000
Post-expand include size: 28965/2048000 bytes
Template argument size: 10697/2048000 bytes
Expensive parser function count: 0/500
-->
<div class="printfooter">
</div>
	    <div id="catlinks"><div id='catlinks' class='catlinks'><div id="mw-normal-catlinks"><a href="../../../../articles/c/a/t/Special%7ECategories_101d.html" title="Special:Categories">Categories</a>:&#32;<span dir='ltr'><a href="../../../../articles/a/s/t/Category%7EAsteroids_b607.html" title="Category:Asteroids">Asteroids</a></span> | <span dir='ltr'><a href="../../../../articles/d/i/s/Category%7EDiscoveries_by_Sylvain_Julien_Victor_Arend_11ea.html" title="Category:Discoveries by Sylvain Julien Victor Arend">Discoveries by Sylvain Julien Victor Arend</a></span></div></div></div>	    <!-- end content -->
	    <div class="visualClear"></div>
	  </div>
	</div>
      </div>
      <div id="column-one">
	<div id="p-cactions" class="portlet">
	  <h5>Views</h5>
	  <ul>
	    <li id="ca-nstab-main"
	       class="selected"	       ><a href="../../../../articles/1/1/2/1127_Mimi_6c39.html">Article</a></li><li id="ca-talk"
	       	       ><a href="../../../../articles/1/1/2/Talk%7E1127_Mimi_49eb.html">Discussion</a></li><li id="ca-current"
	       	       ><a href="http://en.wikipedia.org/wiki/1127_Mimi">Current revision</a></li>	  </ul>
	</div>
	<div class="portlet" id="p-logo">
	  <a style="background-image: url(../../../../misc/Wiki.png);"
	    href="../../../../index.html"
	    title="Main Page"></a>
	</div>
	<script type="text/javascript"> if (window.isMSIE55) fixalpha(); </script>
		<div class='portlet' id='p-navigation'>
	  <h5>Navigation</h5>
	  <div class='pBody'>
	    <ul>
	    	      <li id="n-mainpage"><a href="../../../../index.html">Main Page</a></li>
	     	      <li id="n-Contents"><a href="../../../../articles/c/o/n/Portal%7EContents_b878.html">Contents</a></li>
	     	      <li id="n-featuredcontent"><a href="../../../../articles/f/e/a/Portal%7EFeatured_content_5442.html">Featured content</a></li>
	     	      <li id="n-currentevents"><a href="../../../../articles/c/u/r/Portal%7ECurrent_events_bb60.html">Current events</a></li>
	     	    </ul>
	  </div>
	</div>
		<div class='portlet' id='p-interaction'>
	  <h5>Interaction</h5>
	  <div class='pBody'>
	    <ul>
	    	      <li id="n-aboutsite"><a href="../../../../articles/a/b/o/Wikipedia%7EAbout_8d82.html">About Wikipedia</a></li>
	     	      <li id="n-portal"><a href="../../../../articles/c/o/m/Wikipedia%7ECommunity_Portal_6a3c.html">Community portal</a></li>
	     	      <li id="n-recentchanges"><a href="../../../../articles/r/e/c/Special%7ERecentChanges_e0d0.html">Recent changes</a></li>
	     	      <li id="n-contact"><a href="../../../../articles/c/o/n/Wikipedia%7EContact_us_afd6.html">Contact Wikipedia</a></li>
	     	      <li id="n-sitesupport"><a href="http://wikimediafoundation.org/wiki/Donate">Donate to Wikipedia</a></li>
	     	      <li id="n-help"><a href="../../../../articles/c/o/n/Help%7EContents_22de.html">Help</a></li>
	     	    </ul>
	  </div>
	</div>
		<div id="p-search" class="portlet">
	  <h5><label for="searchInput">Search</label></h5>
	  <div id="searchBody" class="pBody">
	    <form action="javascript:goToStatic(3)" id="searchform"><div>
	      <input id="searchInput" name="search" type="text"
	        accesskey="f" value="" />
	      <input type='submit' name="go" class="searchButton" id="searchGoButton"
	        value="Go" />
	    </div></form>
	  </div>
	</div>
	<div id="p-lang" class="portlet">
	  <h5>Languages</h5>
	  <div class="pBody">
	    <ul>
	      	      <li>
	      <a href="../../../../../de/articles/m/i/m/Mimi_%28Asteroid%29_695e.html">Deutsch</a>
	      </li>
	      	      <li>
	      <a href="../../../../../it/articles/1/1/2/1127_Mimi_6c39.html">Italiano</a>
	      </li>
	      	      <li>
	      <a href="../../../../../ja/articles/%E3%83%9F/%E3%83%9F/_/%E3%83%9F%E3%83%9F_%28%E5%B0%8F%E6%83%91%E6%98%9F%29.html">日本語</a>
	      </li>
	      	      <li>
	      <a href="../../../../../pl/articles/1/1/2/1127_Mimi_6c39.html">Polski</a>
	      </li>
	      	      <li>
	      <a href="../../../../../pt/articles/1/1/2/1127_Mimi_6c39.html">Português</a>
	      </li>
	      	      <li>
	      <a href="../../../../../sk/articles/1/1/2/1127_Mimi_6c39.html">Slovenčina</a>
	      </li>
	      	    </ul>
	  </div>
	</div>
	      </div><!-- end of the left (by default at least) column -->
      <div class="visualClear"></div>
      <div id="footer">
    <div id="f-poweredbyico"><a href="http://www.mediawiki.org/"><img src="../../../../skins/common/images/poweredby_mediawiki_88x31.png" alt="Powered by MediaWiki" /></a></div>	<div id="f-copyrightico"><a href="http://wikimediafoundation.org/"><img src="../../../../misc/wikimedia-button.png" border="0" alt="Wikimedia Foundation"/></a></div>	<ul id="f-list">
	  	  	  <li id="f-credits">This page was last modified 17:38, 9 June 2008 by Wikipedia user <a href="../../../../articles/s/c/a/User%7EScapler_dfaa.html" title="User:Scapler">Scapler</a>. Based on work by Wikipedia user(s) <a href="../../../../articles/u/r/h/User%7EUrhixidur_9dbb.html" title="User:Urhixidur">Urhixidur</a>, <a href="../../../../articles/d/a/n/User%7EDaniel_Bush_238d.html" title="User:Daniel Bush">Daniel Bush</a> and <a href="../../../../articles/e/a/g/User%7EEagleAstroidBot_39b4.html" title="User:EagleAstroidBot">EagleAstroidBot</a> and Anonymous user(s) of Wikipedia.</li>	  <li id="f-copyright">All text is available under the terms of the <a class='internal' href="http://en.wikipedia.org/wiki/Wikipedia:Text_of_the_GNU_Free_Documentation_License" title="Wikipedia:Text of the GNU Free Documentation License">GNU Free Documentation License</a>. (See <b><a class='internal' href="http://en.wikipedia.org/wiki/Wikipedia:Copyrights" title="Wikipedia:Copyrights">Copyrights</a></b> for details.) <br /> Wikipedia&reg; is a registered trademark of the <a href="http://www.wikimediafoundation.org">Wikimedia Foundation, Inc</a>., a U.S. registered <a class='internal' href="http://en.wikipedia.org/wiki/501%28c%29#501.28c.29.283.29" title="501(c)(3)">501(c)(3)</a> <a href="http://wikimediafoundation.org/wiki/Deductibility_of_donations">tax-deductible</a> <a class='internal' href="http://en.wikipedia.org/wiki/Non-profit_organization" title="Non-profit organization">nonprofit</a> <a href="http://en.wikipedia.org/wiki/Charitable_organization" title="Charitable organization">charity</a>.<br /></li>	  <li id="f-about"><a href="../../../../articles/a/b/o/Wikipedia%7EAbout_8d82.html" title="Wikipedia:About">About Wikipedia</a></li>	  <li id="f-disclaimer"><a href="../../../../articles/g/e/n/Wikipedia%7EGeneral_disclaimer_3e44.html" title="Wikipedia:General disclaimer">Disclaimers</a></li>	  	</ul>
      </div>
    </div>
  </body>
</html>
